start=new Date('2022-09-10T00:00:00.000Z').valueOf();
sats=[{"TIME_SYSTEM":"UTC","RA_OF_ASC_NODE":"29.2611","RCS_SIZE":"LARGE","ARG_OF_PERICENTER":"130.8241","DECAY_DATE":null,"MEAN_ELEMENT_THEORY":"SGP4","MEAN_MOTION":"15.07271853","NORAD_CAT_ID":"45688","MEAN_MOTION_DOT":"0.00016898","SEMIMAJOR_AXIS":"6922.678","REV_AT_EPOCH":"12639","TLE_LINE2":"2 45688  53.0568  29.2611 0001758 130.8241 229.2901 15.07271853126396","PERIOD":"95.537","TLE_LINE1":"1 45688U 20035AH  22252.67191719  .00016898  00000-0  11239-2 0  9995","APOAPSIS":"545.760","OBJECT_NAME":"STARLINK-1408","OBJECT_TYPE":"PAYLOAD","BSTAR":"0.00112390000000","ELEMENT_SET_NO":"999","GP_ID":"212163811","COUNTRY_CODE":"US","ECCENTRICITY":"0.00017580","MEAN_MOTION_DDOT":"0.0000000000000","CENTER_NAME":"EARTH","FILE":"3565505","MEAN_ANOMALY":"229.2901","OBJECT_ID":"2020-035AH","SITE":"AFETR","REF_FRAME":"TEME","EPHEMERIS_TYPE":"0","LAUNCH_DATE":"2020-06-04","INCLINATION":"53.0568","CLASSIFICATION_TYPE":"U","PERIAPSIS":"543.326","EPOCH":"2022-09-09T16:07:33.645216"},{"DECAY_DATE":null,"MEAN_ELEMENT_THEORY":"SGP4","MEAN_MOTION":"15.06397002","TIME_SYSTEM":"UTC","RCS_SIZE":"LARGE","RA_OF_ASC_NODE":"28.9171","ARG_OF_PERICENTER":"111.0875","PERIOD":"95.592","TLE_LINE2":"2 45689  53.0555  28.9171 0001288 111.0875 249.0252 15.06397002126328","TLE_LINE1":"1 45689U 20035AJ  22252.77486694  .00000418  00000-0  46951-4 0  9998","NORAD_CAT_ID":"45689","MEAN_MOTION_DOT":"0.00000418","REV_AT_EPOCH":"12632","SEMIMAJOR_AXIS":"6925.358","APOAPSIS":"548.115","BSTAR":"0.00004695100000","ELEMENT_SET_NO":"999","OBJECT_NAME":"STARLINK-1413","OBJECT_TYPE":"PAYLOAD","COUNTRY_CODE":"US","ECCENTRICITY":"0.00012880","MEAN_MOTION_DDOT":"0.0000000000000","GP_ID":"212164562","MEAN_ANOMALY":"249.0252","FILE":"3565505","CENTER_NAME":"EARTH","REF_FRAME":"TEME","SITE":"AFETR","LAUNCH_DATE":"2020-06-04","EPHEMERIS_TYPE":"0","INCLINATION":"53.0555","OBJECT_ID":"2020-035AJ","EPOCH":"2022-09-09T18:35:48.503616","CLASSIFICATION_TYPE":"U","PERIAPSIS":"546.331"},{"APOAPSIS":"550.768","OBJECT_NAME":"STARLINK-1414","OBJECT_TYPE":"PAYLOAD","ELEMENT_SET_NO":"999","BSTAR":"0.00007698500000","TIME_SYSTEM":"UTC","RA_OF_ASC_NODE":"29.7084","RCS_SIZE":"LARGE","ARG_OF_PERICENTER":"111.5733","MEAN_ELEMENT_THEORY":"SGP4","DECAY_DATE":null,"MEAN_MOTION":"15.05586252","NORAD_CAT_ID":"45690","MEAN_MOTION_DOT":"0.00000843","REV_AT_EPOCH":"12633","SEMIMAJOR_AXIS":"6927.844","PERIOD":"95.644","TLE_LINE2":"2 45690  53.0020  29.7084 0001529 111.5733 248.5418 15.05586252126330","TLE_LINE1":"1 45690U 20035AK  22252.59980338  .00000843  00000-0  76985-4 0  9996","OBJECT_ID":"2020-035AK","SITE":"AFETR","REF_FRAME":"TEME","EPHEMERIS_TYPE":"0","LAUNCH_DATE":"2020-06-04","INCLINATION":"53.0020","CLASSIFICATION_TYPE":"U","PERIAPSIS":"548.649","EPOCH":"2022-09-09T14:23:43.012032","GP_ID":"212165309","COUNTRY_CODE":"US","ECCENTRICITY":"0.00015290","MEAN_MOTION_DDOT":"0.0000000000000","FILE":"3565505","CENTER_NAME":"EARTH","MEAN_ANOMALY":"248.5418"},{"MEAN_MOTION":"15.06401124","MEAN_ELEMENT_THEORY":"SGP4","DECAY_DATE":null,"RA_OF_ASC_NODE":"28.9695","RCS_SIZE":"LARGE","ARG_OF_PERICENTER":"83.7632","TIME_SYSTEM":"UTC","PERIOD":"95.592","TLE_LINE2":"2 45691  53.0571  28.9695 0001340  83.7632 276.3509 15.06401124126414","TLE_LINE1":"1 45691U 20035AL  22252.76012936  .00002600  00000-0  19336-3 0  9995","REV_AT_EPOCH":"12641","SEMIMAJOR_AXIS":"6925.345","NORAD_CAT_ID":"45691","MEAN_MOTION_DOT":"0.00002600","APOAPSIS":"548.138","BSTAR":"0.00019336000000","ELEMENT_SET_NO":"999","OBJECT_TYPE":"PAYLOAD","OBJECT_NAME":"STARLINK-1415","MEAN_MOTION_DDOT":"0.0000000000000","COUNTRY_CODE":"US","ECCENTRICITY":"0.00013400","GP_ID":"212164061","MEAN_ANOMALY":"276.3509","CENTER_NAME":"EARTH","FILE":"3565505","INCLINATION":"53.0571","LAUNCH_DATE":"2020-06-04","EPHEMERIS_TYPE":"0","REF_FRAME":"TEME","SITE":"AFETR","OBJECT_ID":"2020-035AL","EPOCH":"2022-09-09T18:14:35.176704","PERIAPSIS":"546.282","CLASSIFICATION_TYPE":"U"},{"DECAY_DATE":null,"MEAN_ELEMENT_THEORY":"SGP4","MEAN_MOTION":"15.06403364","TIME_SYSTEM":"UTC","ARG_OF_PERICENTER":"91.9005","RCS_SIZE":"LARGE","RA_OF_ASC_NODE":"29.0040","TLE_LINE1":"1 45692U 20035AM  22252.75274662  .00001089  00000-0  91982-4 0  9999","PERIOD":"95.592","TLE_LINE2":"2 45692  53.0553  29.0040 0001219  91.9005 268.2124 15.06403364126401","MEAN_MOTION_DOT":"0.00001089","NORAD_CAT_ID":"45692","SEMIMAJOR_AXIS":"6925.338","REV_AT_EPOCH":"12640","APOAPSIS":"548.047","BSTAR":"0.00009198200000","ELEMENT_SET_NO":"999","OBJECT_NAME":"STARLINK-1416","OBJECT_TYPE":"PAYLOAD","ECCENTRICITY":"0.00012190","COUNTRY_CODE":"US","MEAN_MOTION_DDOT":"0.0000000000000","GP_ID":"212164311","MEAN_ANOMALY":"268.2124","CENTER_NAME":"EARTH","FILE":"3565505","REF_FRAME":"TEME","SITE":"AFETR","LAUNCH_DATE":"2020-06-04","INCLINATION":"53.0553","EPHEMERIS_TYPE":"0","OBJECT_ID":"2020-035AM","EPOCH":"2022-09-09T18:03:57.307968","CLASSIFICATION_TYPE":"U","PERIAPSIS":"546.359"},{"FILE":"3565505","CENTER_NAME":"EARTH","MEAN_ANOMALY":"265.5539","GP_ID":"212165062","MEAN_MOTION_DDOT":"0.0000000000000","ECCENTRICITY":"0.00012480","COUNTRY_CODE":"US","PERIAPSIS":"546.356","CLASSIFICATION_TYPE":"U","EPOCH":"2022-09-09T16:54:57.434688","OBJECT_ID":"2020-035AN","LAUNCH_DATE":"2020-06-04","EPHEMERIS_TYPE":"0","INCLINATION":"53.0565","SITE":"AFETR","REF_FRAME":"TEME","SEMIMAJOR_AXIS":"6925.355","REV_AT_EPOCH":"12639","MEAN_MOTION_DOT":"0.00001507","NORAD_CAT_ID":"45693","TLE_LINE1":"1 45693U 20035AN  22252.70483142  .00001507  00000-0  12002-3 0  9990","TLE_LINE2":"2 45693  53.0565  29.2358 0001248  94.5593 265.5539 15.06397760126392","PERIOD":"95.592","ARG_OF_PERICENTER":"94.5593","RA_OF_ASC_NODE":"29.2358","RCS_SIZE":"LARGE","TIME_SYSTEM":"UTC","MEAN_MOTION":"15.06397760","MEAN_ELEMENT_THEORY":"SGP4","DECAY_DATE":null,"OBJECT_TYPE":"PAYLOAD","OBJECT_NAME":"STARLINK-1417","BSTAR":"0.00012002000000","ELEMENT_SET_NO":"999","APOAPSIS":"548.085"},{"TIME_SYSTEM":"UTC","ARG_OF_PERICENTER":"119.0244","RCS_SIZE":"LARGE","RA_OF_ASC_NODE":"28.7975","MEAN_ELEMENT_THEORY":"SGP4","DECAY_DATE":null,"MEAN_MOTION":"15.07311020","MEAN_MOTION_DOT":"0.00015131","NORAD_CAT_ID":"45694","REV_AT_EPOCH":"12640","SEMIMAJOR_AXIS":"6922.558","TLE_LINE1":"1 45694U 20035AP  22252.76461746  .00015131  00000-0  10075-2 0  9998","TLE_LINE2":"2 45694  53.0544  28.7975 0000785 119.0244 241.0824 15.07311020126404","PERIOD":"95.534","APOAPSIS":"544.966","OBJECT_NAME":"STARLINK-1419","OBJECT_TYPE":"PAYLOAD","BSTAR":"0.00100750000000","ELEMENT_SET_NO":"999","GP_ID":"212164811","ECCENTRICITY":"0.00007850","COUNTRY_CODE":"US","MEAN_MOTION_DDOT":"0.0000000000000","CENTER_NAME":"EARTH","FILE":"3565505","MEAN_ANOMALY":"241.0824","OBJECT_ID":"2020-035AP","SITE":"AFETR","REF_FRAME":"TEME","LAUNCH_DATE":"2020-06-04","EPHEMERIS_TYPE":"0","INCLINATION":"53.0544","CLASSIFICATION_TYPE":"U","PERIAPSIS":"543.879","EPOCH":"2022-09-09T18:21:02.948544"},{"ECCENTRICITY":"0.00013090","COUNTRY_CODE":"US","MEAN_MOTION_DDOT":"0.0000000000000","GP_ID":"212163562","MEAN_ANOMALY":"283.9693","CENTER_NAME":"EARTH","FILE":"3565505","REF_FRAME":"TEME","SITE":"AFETR","LAUNCH_DATE":"2020-06-04","INCLINATION":"53.0569","EPHEMERIS_TYPE":"0","OBJECT_ID":"2020-035AQ","EPOCH":"2022-09-09T16:56:14.213184","CLASSIFICATION_TYPE":"U","PERIAPSIS":"546.291","MEAN_ELEMENT_THEORY":"SGP4","DECAY_DATE":null,"MEAN_MOTION":"15.06405285","TIME_SYSTEM":"UTC","ARG_OF_PERICENTER":"76.1441","RCS_SIZE":"LARGE","RA_OF_ASC_NODE":"9.2091","TLE_LINE1":"1 45695U 20035AQ  22252.70572006  .00002000  00000-0  15311-3 0  9995","TLE_LINE2":"2 45695  53.0569   9.2091 0001309  76.1441 283.9693 15.06405285126685","PERIOD":"95.592","MEAN_MOTION_DOT":"0.00002000","NORAD_CAT_ID":"45695","REV_AT_EPOCH":"12668","SEMIMAJOR_AXIS":"6925.332","APOAPSIS":"548.104","BSTAR":"0.00015311000000","ELEMENT_SET_NO":"999","OBJECT_NAME":"STARLINK-1420","OBJECT_TYPE":"PAYLOAD"},{"OBJECT_TYPE":"PAYLOAD","OBJECT_NAME":"STARLINK-1422","BSTAR":"0.00012900000000","ELEMENT_SET_NO":"999","APOAPSIS":"548.182","SEMIMAJOR_AXIS":"6925.352","REV_AT_EPOCH":"12640","NORAD_CAT_ID":"45696","MEAN_MOTION_DOT":"0.00001640","PERIOD":"95.592","TLE_LINE2":"2 45696  53.0562  28.8695 0001394  84.4181 275.6967 15.06398974126401","TLE_LINE1":"1 45696U 20035AR  22252.78223565  .00001640  00000-0  12900-3 0  9997","RA_OF_ASC_NODE":"28.8695","RCS_SIZE":"LARGE","ARG_OF_PERICENTER":"84.4181","TIME_SYSTEM":"UTC","MEAN_MOTION":"15.06398974","DECAY_DATE":null,"MEAN_ELEMENT_THEORY":"SGP4","PERIAPSIS":"546.251","CLASSIFICATION_TYPE":"U","EPOCH":"2022-09-09T18:46:25.160160","OBJECT_ID":"2020-035AR","LAUNCH_DATE":"2020-06-04","EPHEMERIS_TYPE":"0","INCLINATION":"53.0562","REF_FRAME":"TEME","SITE":"AFETR","CENTER_NAME":"EARTH","FILE":"3565505","MEAN_ANOMALY":"275.6967","GP_ID":"212163812","MEAN_MOTION_DDOT":"0.0000000000000","COUNTRY_CODE":"US","ECCENTRICITY":"0.00013940"},{"GP_ID":"212164563","MEAN_MOTION_DDOT":"0.0000000000000","COUNTRY_CODE":"US","ECCENTRICITY":"0.00013250","CENTER_NAME":"EARTH","FILE":"3565505","MEAN_ANOMALY":"273.6935","OBJECT_ID":"2020-035AS","LAUNCH_DATE":"2020-06-04","INCLINATION":"53.0548","EPHEMERIS_TYPE":"0","REF_FRAME":"TEME","SITE":"AFETR","PERIAPSIS":"546.300","CLASSIFICATION_TYPE":"U","EPOCH":"2022-09-09T18:11:54.525408","RA_OF_ASC_NODE":"9.0009","RCS_SIZE":"LARGE","ARG_OF_PERICENTER":"86.4205","TIME_SYSTEM":"UTC","MEAN_MOTION":"15.06398733","MEAN_ELEMENT_THEORY":"SGP4","DECAY_DATE":null,"REV_AT_EPOCH":"12669","SEMIMAJOR_AXIS":"6925.352","NORAD_CAT_ID":"45697","MEAN_MOTION_DOT":"-0.00000663","PERIOD":"95.592","TLE_LINE2":"2 45697  53.0548   9.0009 0001325  86.4205 273.6935 15.06398733126696","TLE_LINE1":"1 45697U 20035AS  22252.75826997 -.00000663  00000-0 -25596-4 0  9995","APOAPSIS":"548.135","OBJECT_TYPE":"PAYLOAD","OBJECT_NAME":"STARLINK-1351","BSTAR":"-0.00002559600000","ELEMENT_SET_NO":"999"}];
